AQUA                    
1 27424U 02022A   26068.88830181  .00001388  00000+0  28685-3 0  9995
2 27424  98.4175  36.2568 0000561  81.0346 331.7718 14.61977745268769
CZ-4B R/B               
1 27432U 02024C   26068.72875843  .00000036  00000+0  41658-4 0  9998
2 27432  98.8839 122.1353 0050481  24.1066  86.7627 14.14547560229241
MIDORI II (ADEOS-II)    
1 27597U 02056A   26068.87371145  .00000417  00000+0  18155-3 0  9995
2 27597  98.7769  27.3525 0001570  42.2245 317.9057 14.29285373210328
H-2A R/B                
1 27601U 02056E   26068.84545525  .00000342  00000+0  13433-3 0  9994
2 27601  98.3202  29.2051 0070520 160.2100 253.4350 14.33760820214132
CZ-4B R/B               
1 28059U 03049C   26068.86489523  .00000488  00000+0  12359-3 0  9999
2 28059  98.6880  63.7765 0047264 230.3613 129.3408 14.55020381186629
CZ-2C R/B               
1 28222U 04012C   26068.73706385  .00054864  00000+0  56669-3 0  9995
2 28222  97.7227 134.0339 0012922 309.1452  50.8657 15.64506189204287
SL-16 R/B               
1 28353U 04021B   26068.88128525 -.00000243  00000+0 -10191-3 0  9994
2 28353  70.9995 232.0903 0004065   8.9977 351.1217 14.14597913122869
CZ-4B R/B               
1 28415U 04035C   26068.64746184  .00009257  00000+0  32600-3 0  9990
2 28415  97.3501 102.8902 0031016 331.7135  28.2420 15.29063015179909
CZ-2C R/B               
1 28480U 04046B   26068.76604830  .00000161  00000+0  74431-4 0  9992
2 28480  98.1983 343.7453 0139886 154.2177 206.6065 14.26992119108517
ARIANE 5 R/B            
1 28499U 04049H   26068.43055997  .00000991  00000+0  11561-3 0  9998
2 28499  98.2627 236.8779 0083955 352.7695   7.2301 14.85265161145751
CZ-2D R/B               
1 28738U 05024B   26068.58111096  .00044846  00000+0  55121-3 0  9994
2 28738  97.3602  83.7230 0005871  46.8038 313.3708 15.60135028139762
ALOS (DAICHI)           
1 28931U 06002A   26068.84331993  .00001879  00000+0  32296-3 0  9992
2 28931  98.1218  24.7979 0000904  55.8758 304.2533 14.69811163 73508
