CCSDS_OMM_VERS = 2.0
CREATION_DATE  = 
ORIGINATOR     = 

OBJECT_NAME    = AQUA
OBJECT_ID      = 2002-022A
CENTER_NAME    = EARTH
REF_FRAME      = TEME
TIME_SYSTEM    = UTC
MEAN_ELEMENT_THEORY = SGP/SGP4

EPOCH          = 2026-03-09T21:19:09.276384
MEAN_MOTION    = 14.61977745
ECCENTRICITY   = .0000561
INCLINATION    = 98.4175
RA_OF_ASC_NODE = 36.2568
ARG_OF_PERICENTER = 81.0346
MEAN_ANOMALY   = 331.7718

EPHEMERIS_TYPE = 0
CLASSIFICATION_TYPE = U
NORAD_CAT_ID   = 27424
ELEMENT_SET_NO = 999
REV_AT_EPOCH   = 26876
BSTAR          = .28685E-3
MEAN_MOTION_DOT = .1388E-4
MEAN_MOTION_DDOT = 0

CCSDS_OMM_VERS = 2.0
CREATION_DATE  = 
ORIGINATOR     = 

OBJECT_NAME    = CZ-4B R/B
OBJECT_ID      = 2002-024C
CENTER_NAME    = EARTH
REF_FRAME      = TEME
TIME_SYSTEM    = UTC
MEAN_ELEMENT_THEORY = SGP/SGP4

EPOCH          = 2026-03-09T17:29:24.728352
MEAN_MOTION    = 14.14547560
ECCENTRICITY   = .0050481
INCLINATION    = 98.8839
RA_OF_ASC_NODE = 122.1353
ARG_OF_PERICENTER = 24.1066
MEAN_ANOMALY   = 86.7627

EPHEMERIS_TYPE = 0
CLASSIFICATION_TYPE = U
NORAD_CAT_ID   = 27432
ELEMENT_SET_NO = 999
REV_AT_EPOCH   = 22924
BSTAR          = .41658E-4
MEAN_MOTION_DOT = .36E-6
MEAN_MOTION_DDOT = 0

CCSDS_OMM_VERS = 2.0
CREATION_DATE  = 
ORIGINATOR     = 

OBJECT_NAME    = MIDORI II (ADEOS-II)
OBJECT_ID      = 2002-056A
CENTER_NAME    = EARTH
REF_FRAME      = TEME
TIME_SYSTEM    = UTC
MEAN_ELEMENT_THEORY = SGP/SGP4

EPOCH          = 2026-03-09T20:58:08.669280
MEAN_MOTION    = 14.29285373
ECCENTRICITY   = .000157
INCLINATION    = 98.7769
RA_OF_ASC_NODE = 27.3525
ARG_OF_PERICENTER = 42.2245
MEAN_ANOMALY   = 317.9057

EPHEMERIS_TYPE = 0
CLASSIFICATION_TYPE = U
NORAD_CAT_ID   = 27597
ELEMENT_SET_NO = 999
REV_AT_EPOCH   = 21032
BSTAR          = .18155E-3
MEAN_MOTION_DOT = .417E-5
MEAN_MOTION_DDOT = 0

CCSDS_OMM_VERS = 2.0
CREATION_DATE  = 
ORIGINATOR     = 

OBJECT_NAME    = H-2A R/B
OBJECT_ID      = 2002-056E
CENTER_NAME    = EARTH
REF_FRAME      = TEME
TIME_SYSTEM    = UTC
MEAN_ELEMENT_THEORY = SGP/SGP4

EPOCH          = 2026-03-09T20:17:27.333600
MEAN_MOTION    = 14.33760820
ECCENTRICITY   = .007052
INCLINATION    = 98.3202
RA_OF_ASC_NODE = 29.2051
ARG_OF_PERICENTER = 160.2100
MEAN_ANOMALY   = 253.4350

EPHEMERIS_TYPE = 0
CLASSIFICATION_TYPE = U
NORAD_CAT_ID   = 27601
ELEMENT_SET_NO = 999
REV_AT_EPOCH   = 21413
BSTAR          = .13433E-3
MEAN_MOTION_DOT = .342E-5
MEAN_MOTION_DDOT = 0

CCSDS_OMM_VERS = 2.0
CREATION_DATE  = 
ORIGINATOR     = 

OBJECT_NAME    = CZ-4B R/B
OBJECT_ID      = 2003-049C
CENTER_NAME    = EARTH
REF_FRAME      = TEME
TIME_SYSTEM    = UTC
MEAN_ELEMENT_THEORY = SGP/SGP4

EPOCH          = 2026-03-09T20:45:26.947872
MEAN_MOTION    = 14.55020381
ECCENTRICITY   = .0047264
INCLINATION    = 98.6880
RA_OF_ASC_NODE = 63.7765
ARG_OF_PERICENTER = 230.3613
MEAN_ANOMALY   = 129.3408

EPHEMERIS_TYPE = 0
CLASSIFICATION_TYPE = U
NORAD_CAT_ID   = 28059
ELEMENT_SET_NO = 999
REV_AT_EPOCH   = 18662
BSTAR          = .12359E-3
MEAN_MOTION_DOT = .488E-5
MEAN_MOTION_DDOT = 0

CCSDS_OMM_VERS = 2.0
CREATION_DATE  = 
ORIGINATOR     = 

OBJECT_NAME    = CZ-2C R/B
OBJECT_ID      = 2004-012C
CENTER_NAME    = EARTH
REF_FRAME      = TEME
TIME_SYSTEM    = UTC
MEAN_ELEMENT_THEORY = SGP/SGP4

EPOCH          = 2026-03-09T17:41:22.316640
MEAN_MOTION    = 15.64506189
ECCENTRICITY   = .0012922
INCLINATION    = 97.7227
RA_OF_ASC_NODE = 134.0339
ARG_OF_PERICENTER = 309.1452
MEAN_ANOMALY   = 50.8657

EPHEMERIS_TYPE = 0
CLASSIFICATION_TYPE = U
NORAD_CAT_ID   = 28222
ELEMENT_SET_NO = 999
REV_AT_EPOCH   = 20428
BSTAR          = .56669E-3
MEAN_MOTION_DOT = .54864E-3
MEAN_MOTION_DDOT = 0

CCSDS_OMM_VERS = 2.0
CREATION_DATE  = 
ORIGINATOR     = 

OBJECT_NAME    = SL-16 R/B
OBJECT_ID      = 2004-021B
CENTER_NAME    = EARTH
REF_FRAME      = TEME
TIME_SYSTEM    = UTC
MEAN_ELEMENT_THEORY = SGP/SGP4

EPOCH          = 2026-03-09T21:09:03.045600
MEAN_MOTION    = 14.14597913
ECCENTRICITY   = .0004065
INCLINATION    = 70.9995
RA_OF_ASC_NODE = 232.0903
ARG_OF_PERICENTER = 8.9977
MEAN_ANOMALY   = 351.1217

EPHEMERIS_TYPE = 0
CLASSIFICATION_TYPE = U
NORAD_CAT_ID   = 28353
ELEMENT_SET_NO = 999
REV_AT_EPOCH   = 12286
BSTAR          = -.10191E-3
MEAN_MOTION_DOT = -.243E-5
MEAN_MOTION_DDOT = 0

CCSDS_OMM_VERS = 2.0
CREATION_DATE  = 
ORIGINATOR     = 

OBJECT_NAME    = CZ-4B R/B
OBJECT_ID      = 2004-035C
CENTER_NAME    = EARTH
REF_FRAME      = TEME
TIME_SYSTEM    = UTC
MEAN_ELEMENT_THEORY = SGP/SGP4

EPOCH          = 2026-03-09T15:32:20.702976
MEAN_MOTION    = 15.29063015
ECCENTRICITY   = .0031016
INCLINATION    = 97.3501
RA_OF_ASC_NODE = 102.8902
ARG_OF_PERICENTER = 331.7135
MEAN_ANOMALY   = 28.2420

EPHEMERIS_TYPE = 0
CLASSIFICATION_TYPE = U
NORAD_CAT_ID   = 28415
ELEMENT_SET_NO = 999
REV_AT_EPOCH   = 17990
BSTAR          = .326E-3
MEAN_MOTION_DOT = .9257E-4
MEAN_MOTION_DDOT = 0

CCSDS_OMM_VERS = 2.0
CREATION_DATE  = 
ORIGINATOR     = 

OBJECT_NAME    = CZ-2C R/B
OBJECT_ID      = 2004-046B
CENTER_NAME    = EARTH
REF_FRAME      = TEME
TIME_SYSTEM    = UTC
MEAN_ELEMENT_THEORY = SGP/SGP4

EPOCH          = 2026-03-09T18:23:06.573120
MEAN_MOTION    = 14.26992119
ECCENTRICITY   = .0139886
INCLINATION    = 98.1983
RA_OF_ASC_NODE = 343.7453
ARG_OF_PERICENTER = 154.2177
MEAN_ANOMALY   = 206.6065

EPHEMERIS_TYPE = 0
CLASSIFICATION_TYPE = U
NORAD_CAT_ID   = 28480
ELEMENT_SET_NO = 999
REV_AT_EPOCH   = 10851
BSTAR          = .74431E-4
MEAN_MOTION_DOT = .161E-5
MEAN_MOTION_DDOT = 0

CCSDS_OMM_VERS = 2.0
CREATION_DATE  = 
ORIGINATOR     = 

OBJECT_NAME    = ARIANE 5 R/B
OBJECT_ID      = 2004-049H
CENTER_NAME    = EARTH
REF_FRAME      = TEME
TIME_SYSTEM    = UTC
MEAN_ELEMENT_THEORY = SGP/SGP4

EPOCH          = 2026-03-09T10:20:00.381408
MEAN_MOTION    = 14.85265161
ECCENTRICITY   = .00839555
INCLINATION    = 98.2627
RA_OF_ASC_NODE = 236.8779
ARG_OF_PERICENTER = 352.7695
MEAN_ANOMALY   = 7.2301

EPHEMERIS_TYPE = 0
CLASSIFICATION_TYPE = U
NORAD_CAT_ID   = 28499
ELEMENT_SET_NO = 999
REV_AT_EPOCH   = 14575
BSTAR          = .11561171E-3
MEAN_MOTION_DOT = .991E-5
MEAN_MOTION_DDOT = 0

CCSDS_OMM_VERS = 2.0
CREATION_DATE  = 
ORIGINATOR     = 

OBJECT_NAME    = CZ-2D R/B
OBJECT_ID      = 2005-024B
CENTER_NAME    = EARTH
REF_FRAME      = TEME
TIME_SYSTEM    = UTC
MEAN_ELEMENT_THEORY = SGP/SGP4

EPOCH          = 2026-03-09T13:56:47.986944
MEAN_MOTION    = 15.60135028
ECCENTRICITY   = .0005871
INCLINATION    = 97.3602
RA_OF_ASC_NODE = 83.7230
ARG_OF_PERICENTER = 46.8038
MEAN_ANOMALY   = 313.3708

EPHEMERIS_TYPE = 0
CLASSIFICATION_TYPE = U
NORAD_CAT_ID   = 28738
ELEMENT_SET_NO = 999
REV_AT_EPOCH   = 13976
BSTAR          = .55121E-3
MEAN_MOTION_DOT = .44846E-3
MEAN_MOTION_DDOT = 0

CCSDS_OMM_VERS = 2.0
CREATION_DATE  = 
ORIGINATOR     = 

OBJECT_NAME    = ALOS (DAICHI)
OBJECT_ID      = 2006-002A
CENTER_NAME    = EARTH
REF_FRAME      = TEME
TIME_SYSTEM    = UTC
MEAN_ELEMENT_THEORY = SGP/SGP4

EPOCH          = 2026-03-09T20:14:22.841952
MEAN_MOTION    = 14.69811163
ECCENTRICITY   = .0000904
INCLINATION    = 98.1218
RA_OF_ASC_NODE = 24.7979
ARG_OF_PERICENTER = 55.8758
MEAN_ANOMALY   = 304.2533

EPHEMERIS_TYPE = 0
CLASSIFICATION_TYPE = U
NORAD_CAT_ID   = 28931
ELEMENT_SET_NO = 999
REV_AT_EPOCH   = 7350
BSTAR          = .32296E-3
MEAN_MOTION_DOT = .1879E-4
MEAN_MOTION_DDOT = 0

